ONEWEB-0412             
1 50489U 21132W   23326.11884983  .00000105  00000+0  23263-3 0  9997
2 50489  87.9218 162.0708 0001599  62.7140 297.4155 13.18689478 99300
ONEWEB-0413             
1 50490U 21132X   23326.04720195  .00000082  00000+0  17622-3 0  9991
2 50490  87.9217 162.0986 0001464  68.8936 291.2353 13.18684260 99249
ONEWEB-0414             
1 50491U 21132Y   23325.57825105  .00000089  00000+0  19423-3 0  9994
2 50491  87.9215 162.1786 0001807  71.3827 288.7501 13.18688727 97927
ONEWEB-0417             
1 50492U 21132Z   23326.11674396  .00000061  00000+0  12195-3 0  9999
2 50492  87.9157 162.0737 0001859  88.3003 271.8342 13.18687740 99268
ONEWEB-0418             
1 50493U 21132AA  23326.05456681  .00000094  00000+0  20467-3 0  9995
2 50493  87.9216 162.0853 0002132  89.4825 270.6552 13.18683785 99303
ONEWEB-0419             
1 50494U 21132AB  23326.06826799  .00000111  00000+0  24917-3 0  9992
2 50494  87.9211 162.1056 0001800  96.2052 263.9286 13.18684949 99238
ONEWEB-0420             
1 50495U 21132AC  23326.11041748  .00000048  00000+0  89556-4 0  9992
2 50495  87.9214 162.1053 0001222  77.8478 282.2791 13.18684063 99247
ONEWEB-0421             
1 50496U 21132AD  23326.10411074 -.00000017  00000+0 -76912-4 0  9995
2 50496  87.9157 162.0656 0001691  66.6959 293.4351 13.18686188 99282
